STARLINK-3938           
1 52566U 22051AK  26198.91668981  .00014970  00000+0  66678-3 0  9994
2 52566  53.1598 268.1461 0001509  13.1111 284.9493 15.21663967  5851
STARLINK-3929           
1 52567U 22051AL  26198.65525695  .00016500  00000+0  48267-3 0  9995
2 52567  53.1579 251.0832 0001088  63.8296 296.2819 15.35414338231267
STARLINK-3930           
1 52568U 22051AM  26198.44333597 -.00002423  00000+0 -60675-4 0  9990
2 52568  53.1596 252.0094 0001116  81.6503 278.4626 15.34367498231237
STARLINK-3927           
1 52569U 22051AN  26198.55713161  .00000622  00000+0  31816-4 0  9994
2 52569  53.1601 252.6316 0001565  85.1374 274.9806 15.31700218231230
STARLINK-3901           
1 52574U 22051AQ  26198.17647464  .00001513  00000+0  54234-4 0  9999
2 52574  53.1598 253.1501 0000973  66.8328 293.2778 15.35418565231192
STARLINK-3932           
1 52576U 22051AS  26198.17818474  .00000494  00000+0  49111-4 0  9997
2 52576  53.1586 257.5467 0000911  78.2119 281.8975 15.08840476231133
STARLINK-3836           
1 52577U 22051AT  26198.91509123 -.00000201  00000+0  51763-5 0  9992
2 52577  53.1597 265.2840 0001347  71.3034 288.8115 15.34385476231092
STARLINK-3833           
1 52578U 22051AU  26198.92507688  .00001271  00000+0  47340-4 0  9990
2 52578  53.1606 266.0092 0001185  81.3348 278.7789 15.35399560231085
STARLINK-3893           
1 52579U 22051AV  26198.91668981  .00650505  00000+0  68051-2 0  9994
2 52579  53.2168 257.8643 0000969  73.1322 290.9881 15.61794659  5681
STARLINK-3919           
1 52580U 22051AW  26198.22648343 -.00000281  00000+0  44927-6 0  9991
2 52580  53.1597 272.3428 0001210  93.1748 266.9382 15.08832539230933
STARLINK-3915           
1 52581U 22051AX  26198.43850459  .00000387  00000+0  42376-4 0  9998
2 52581  53.1580 256.3760 0000979  75.4351 284.6749 15.08835009231177
STARLINK-3895           
1 52583U 22051AZ  26198.56730522  .00000123  00000+0  25828-4 0  9993
2 52583  53.1588 255.7990 0000811  79.4131 280.6952 15.08835300231198
STARLINK-3922           
1 52584U 22051BA  26198.17722419 -.00000327  00000+0 -24386-5 0  9994
2 52584  53.1587 257.5508 0001065  74.2293 285.8816 15.08834080231131
STARLINK-3906           
1 52585U 22051BB  26198.55626544  .00000262  00000+0  34543-4 0  9990
2 52585  53.1579 255.8086 0001120  77.9126 282.1990 15.08832655231197
STARLINK-3910           
1 52586U 22051BC  26198.89482627  .00000103  00000+0  24583-4 0  9997
2 52586  53.1589 254.3277 0000861  81.8513 278.2576 15.08834293231242
STARLINK-3867           
1 52587U 22051BD  26198.41259257 -.00000037  00000+0  10579-4 0  9994
2 52587  53.1591 252.8806 0001130  74.0971 286.0155 15.31698912231229
STARLINK-3917           
1 52588U 22051BE  26198.42010714  .00000045  00000+0  20924-4 0  9992
2 52588  53.1582 256.4594 0001189  90.1298 269.9829 15.08833615231176
STARLINK-4019           
1 52598U 22052A   26198.91668981  .00037601  00000+0  15880-2 0  9994
2 52598  53.1597  58.0101 0000740 108.3579 134.7439 15.22926971  5796
STARLINK-4024           
1 52599U 22052B   26198.89886912 -.00000110  00000+0  82095-5 0  9999
2 52599  53.1608  50.1054 0001140  90.8320 269.2812 15.31696356231379
STARLINK-4026           
1 52600U 22052C   26198.91240670 -.00000445  00000+0 -30968-5 0  9994
2 52600  53.1615  52.4167 0000998  83.4245 276.6869 15.29357159231347
STARLINK-4027           
1 52601U 22052D   26198.89482853 -.00000945  00000+0 -41269-4 0  9993
2 52601  53.1605  54.3290 0001360  93.3111 266.8036 15.08831682231310
STARLINK-4012           
1 52602U 22052E   26198.82490703 -.00000546  00000+0 -16209-4 0  9993
2 52602  53.1612  54.6435 0001433  91.8955 268.2201 15.08832808231303
STARLINK-4016           
1 52603U 22052F   26198.95971346 -.00001611  00000+0 -40170-4 0  9993
2 52603  53.1611  49.3143 0001104  89.6855 270.4273 15.31694031231392
STARLINK-4013           
1 52604U 22052G   26198.88378709 -.00000398  00000+0 -69255-5 0  9997
2 52604  53.1601  54.3759 0001540  90.9022 269.2146 15.08834653230514
STARLINK-4000           
1 52605U 22052H   26198.91668981  .00080797  00000+0  24928-2 0  9990
2 52605  53.1607  57.4294 0001971  89.7910 111.1696 15.32889501  5850
STARLINK-3928           
1 52606U 22052J   26198.87994721  .00021131  00000+0  13356-2 0  9990
2 52606  53.1599  54.3916 0003089 145.1537 214.9657 15.09007664230510
STARLINK-3947           
1 52607U 22052K   26198.91668981  .00034801  00000+0  12196-2 0  9991
2 52607  53.1606  58.3608 0000944 104.0120  16.1553 15.29169610  5857
STARLINK-3979           
1 52608U 22052L   26198.80651055  .00000586  00000+0  54933-4 0  9994
2 52608  53.1603  54.7248 0001329  86.2585 273.8559 15.08831020230507
STARLINK-3997           
1 52609U 22052M   26198.86170225  .00000758  00000+0  65716-4 0  9998
2 52609  53.1597  54.4252 0001577  83.3303 276.7868 15.08836103230516
STARLINK-3998           
1 52610U 22052N   26198.91668981  .00038667  00000+0  16276-2 0  9992
2 52610  53.1594  58.0856 0001089  82.6435 161.7742 15.23026978  5759
