OBJECT_NAME,OBJECT_ID,EPOCH,MEAN_MOTION,ECCENTRICITY,INCLINATION,RA_OF_ASC_NODE,ARG_OF_PERICENTER,MEAN_ANOMALY,EPHEMERIS_TYPE,CLASSIFICATION_TYPE,NORAD_CAT_ID,ELEMENT_SET_NO,REV_AT_EPOCH,BSTAR,MEAN_MOTION_DOT,MEAN_MOTION_DDOT
STARLINK-3938,2022-051AK,2026-07-17T22:00:01.999584,15.21663967,.00015094,53.1598,268.1461,13.1111,284.9493,0,U,52566,999,585,.66677791E-3,.1497E-3,0
STARLINK-3929,2022-051AL,2026-07-17T15:43:34.200480,15.35414338,.00010881,53.1579,251.0832,63.8296,296.2819,0,U,52567,999,23126,.48266508E-3,.165E-3,0
STARLINK-3930,2022-051AM,2026-07-17T10:38:24.227808,15.34367498,.0001116,53.1596,252.0094,81.6503,278.4626,0,U,52568,999,23123,-.60675E-4,-.2423E-4,0
STARLINK-3927,2022-051AN,2026-07-17T13:22:16.171104,15.31700218,.0001565,53.1601,252.6316,85.1374,274.9806,0,U,52569,999,23123,.31816E-4,.622E-5,0
STARLINK-3901,2022-051AQ,2026-07-17T04:14:07.408896,15.35418565,.00009733,53.1598,253.1501,66.8328,293.2778,0,U,52574,999,23119,.54234106E-4,.1513E-4,0
STARLINK-3932,2022-051AS,2026-07-17T04:16:35.161536,15.08840476,.00009118,53.1586,257.5467,78.2119,281.8975,0,U,52576,999,23113,.49111231E-4,.494E-5,0
STARLINK-3836,2022-051AT,2026-07-17T21:57:43.882272,15.34385476,.00013479,53.1597,265.2840,71.3034,288.8115,0,U,52577,999,23109,.5176252E-5,-.201E-5,0
STARLINK-3833,2022-051AU,2026-07-17T22:12:06.642432,15.35399560,.00011853,53.1606,266.0092,81.3348,278.7789,0,U,52578,999,23108,.47340415E-4,.1271E-4,0
STARLINK-3893,2022-051AV,2026-07-17T22:00:01.999584,15.61794659,.00009697,53.2168,257.8643,73.1322,290.9881,0,U,52579,999,568,.68051415E-2,.650505E-2,0
STARLINK-3919,2022-051AW,2026-07-17T05:26:08.168352,15.08832539,.000121,53.1597,272.3428,93.1748,266.9382,0,U,52580,999,23093,.44927E-6,-.281E-5,0
STARLINK-3915,2022-051AX,2026-07-17T10:31:26.796576,15.08835009,.0000979,53.1580,256.3760,75.4351,284.6749,0,U,52581,999,23117,.42376E-4,.387E-5,0
STARLINK-3895,2022-051AZ,2026-07-17T13:36:55.171008,15.08835300,.0000811,53.1588,255.7990,79.4131,280.6952,0,U,52583,999,23119,.25828E-4,.123E-5,0
STARLINK-3922,2022-051BA,2026-07-17T04:15:12.170016,15.08834080,.00010651,53.1587,257.5508,74.2293,285.8816,0,U,52584,999,23113,-.2438608E-5,-.327E-5,0
STARLINK-3906,2022-051BB,2026-07-17T13:21:01.334016,15.08832655,.000112,53.1579,255.8086,77.9126,282.1990,0,U,52585,999,23119,.34543E-4,.262E-5,0
STARLINK-3910,2022-051BC,2026-07-17T21:28:32.989728,15.08834293,.0000861,53.1589,254.3277,81.8513,278.2576,0,U,52586,999,23124,.24582893E-4,.103E-5,0
STARLINK-3867,2022-051BD,2026-07-17T09:54:07.998048,15.31698912,.000113,53.1591,252.8806,74.0971,286.0155,0,U,52587,999,23122,.10579E-4,-.37E-6,0
STARLINK-3917,2022-051BE,2026-07-17T10:04:57.256896,15.08833615,.0001189,53.1582,256.4594,90.1298,269.9829,0,U,52588,999,23117,.20924E-4,.45E-6,0
STARLINK-4019,2022-052A,2026-07-17T22:00:01.999584,15.22926971,.00007407,53.1597,58.0101,108.3579,134.7439,0,U,52598,999,579,.15880308E-2,.37601E-3,0
STARLINK-4024,2022-052B,2026-07-17T21:34:22.291968,15.31696356,.00011408,53.1608,50.1054,90.8320,269.2812,0,U,52599,999,23137,.8209492E-5,-.11E-5,0
STARLINK-4026,2022-052C,2026-07-17T21:53:51.938880,15.29357159,.0000998,53.1615,52.4167,83.4245,276.6869,0,U,52600,999,23134,-.3096818E-5,-.445E-5,0
STARLINK-4027,2022-052D,2026-07-17T21:28:33.184992,15.08831682,.00013608,53.1605,54.3290,93.3111,266.8036,0,U,52601,999,23131,-.41268856E-4,-.945E-5,0
STARLINK-4012,2022-052E,2026-07-17T19:47:51.967392,15.08832808,.00014332,53.1612,54.6435,91.8955,268.2201,0,U,52602,999,23130,-.16208501E-4,-.546E-5,0
STARLINK-4016,2022-052F,2026-07-17T23:01:59.242944,15.31694031,.00011049,53.1611,49.3143,89.6855,270.4273,0,U,52603,999,23139,-.40169996E-4,-.1611E-4,0
STARLINK-4013,2022-052G,2026-07-17T21:12:39.204576,15.08834653,.00015402,53.1601,54.3759,90.9022,269.2146,0,U,52604,999,23051,-.6925543E-5,-.398E-5,0
STARLINK-4000,2022-052H,2026-07-17T22:00:01.999584,15.32889501,.00019718,53.1607,57.4294,89.7910,111.1696,0,U,52605,999,585,.24928216E-2,.80797E-3,0
STARLINK-3928,2022-052J,2026-07-17T21:07:07.438944,15.09007664,.00030892,53.1599,54.3916,145.1537,214.9657,0,U,52606,999,23051,.13355799E-2,.21131E-3,0
STARLINK-3947,2022-052K,2026-07-17T22:00:01.999584,15.29169610,.00009441,53.1606,58.3608,104.0120,16.1553,0,U,52607,999,585,.12196497E-2,.34801E-3,0
STARLINK-3979,2022-052L,2026-07-17T19:21:22.511520,15.08831020,.00013291,53.1603,54.7248,86.2585,273.8559,0,U,52608,999,23050,.54932852E-4,.586E-5,0
STARLINK-3997,2022-052M,2026-07-17T20:40:51.074400,15.08836103,.00015773,53.1597,54.4252,83.3303,276.7868,0,U,52609,999,23051,.65715896E-4,.758E-5,0
STARLINK-3998,2022-052N,2026-07-17T22:00:01.999584,15.23026978,.00010891,53.1594,58.0856,82.6435,161.7742,0,U,52610,999,575,.16275975E-2,.38667E-3,0
